CSS (TIANHE)            
1 48274U 21035A   24290.10325935  .00036235  00000+0  36256-3 0  9994
2 48274  41.4667  65.4865 0004457 215.8305 144.2236 15.64825570198017
